{"type": "FeatureCollection", "features": [ {"type": "Feature", "properties": {"norad_id": 31168, "name": "FENGYUN 1C DEB", "group": "fengyun-1c-debris", "lat": 43.655875573837335, "lon": 125.56474549753288, "alt_km": 597.230566789397, "timestamp": "2025-12-27T15:27:11.471432+00:00", "meta": {"OBJECT_NAME": "FENGYUN 1C DEB", "OBJECT_ID": "1999-025BHW", "EPOCH": "2025-12-26T08:09:49.699584", "MEAN_MOTION": 14.67439264, "ECCENTRICITY": 0.0108256, "INCLINATION": 98.8908, "RA_OF_ASC_NODE": 132.7405, "ARG_OF_PERICENTER": 21.7154, "MEAN_ANOMALY": 338.8587, "EPHEMERIS_TYPE": 0, "CLASSIFICATION_TYPE": "U", "NORAD_CAT_ID": 31168, "ELEMENT_SET_NO": 999, "REV_AT_EPOCH": 99320, "BSTAR": 0.00056904, "MEAN_MOTION_DOT": 3.455e-05, "MEAN_MOTION_DDOT": 0}, "tle": {"line1": "1 31168U 99025BHW 25360.34015856  .00003455  00000+0  56904-3 0  9995", "line2": "2 31168  98.8908 132.7405 0108256  21.7154 338.8587 14.67439264993208"}}, "geometry": {"type": "Point", "coordinates": [125.56474549753288, 43.655875573837335]}}, {"type": "Feature", "properties": {"norad_id": 31169, "name": "FENGYUN 1C DEB", "group": "fengyun-1c-debris", "lat": -50.68062299321291, "lon": -162.60515027667998, "alt_km": 818.5337786466807, "timestamp": "2025-12-27T15:27:11.471442+00:00", "meta": {"OBJECT_NAME": "FENGYUN 1C DEB", "OBJECT_ID": "1999-025BHX", "EPOCH": "2025-12-27T00:54:02.666304", "MEAN_MOTION": 14.26586547, "ECCENTRICITY": 0.00574934, "INCLINATION": 99.1569, "RA_OF_ASC_NODE": 28.1184, "ARG_OF_PERICENTER": 335.4963, "MEAN_ANOMALY": 24.3485, "EPHEMERIS_TYPE": 0, "CLASSIFICATION_TYPE": "U", "NORAD_CAT_ID": 31169, "ELEMENT_SET_NO": 999, "REV_AT_EPOCH": 57308, "BSTAR": 0.0023395136, "MEAN_MOTION_DOT": 5.702e-05, "MEAN_MOTION_DDOT": 0}, "tle": {"line1": "1 31169U 99025BHX 25361.03753086  .00005702  00000+0  23395-2 0  9991", "line2": "2 31169  99.1569  28.1184 0057493 335.4963  24.3485 14.26586547573083"}}, "geometry": {"type": "Point", "coordinates": [-162.60515027667998, -50.68062299321291]}}, {"type": "Feature", "properties": {"norad_id": 31171, "name": "FENGYUN 1C DEB", "group": "fengyun-1c-debris", "lat": 59.29990616759882, "lon": -23.47156226153518, "alt_km": 861.7088150604077, "timestamp": "2025-12-27T15:27:11.471453+00:00", "meta": {"OBJECT_NAME": "FENGYUN 1C DEB", "OBJECT_ID": "1999-025BHZ", "EPOCH": "2025-12-26T22:34:29.363232", "MEAN_MOTION": 14.35177179, "ECCENTRICITY": 0.0152854, "INCLINATION": 98.0171, "RA_OF_ASC_NODE": 349.6057, "ARG_OF_PERICENTER": 273.6535, "MEAN_ANOMALY": 114.3267, "EPHEMERIS_TYPE": 0, "CLASSIFICATION_TYPE": "U", "NORAD_CAT_ID": 31171, "ELEMENT_SET_NO": 999, "REV_AT_EPOCH": 96034, "BSTAR": 0.0044432, "MEAN_MOTION_DOT": 0.00014478, "MEAN_MOTION_DDOT": 0}, "tle": {"line1": "1 31171U 99025BHZ 25360.94061763  .00014478  00000+0  44432-2 0  9992", "line2": "2 31171  98.0171 349.6057 0152854 273.6535 114.3267 14.35177179960342"}}, "geometry": {"type": "Point", "coordinates": [-23.47156226153518, 59.29990616759882]}}, {"type": "Feature", "properties": {"norad_id": 31172, "name": "FENGYUN 1C DEB", "group": "fengyun-1c-debris", "lat": 49.91726972631976, "lon": -164.17453037723402, "alt_km": 789.4230471231749, "timestamp": "2025-12-27T15:27:11.471463+00:00", "meta": {"OBJECT_NAME": "FENGYUN 1C DEB", "OBJECT_ID": "1999-025BJA", "EPOCH": "2025-12-27T06:27:01.336608", "MEAN_MOTION": 14.31526724, "ECCENTRICITY": 0.01483623, "INCLINATION": 98.4252, "RA_OF_ASC_NODE": 5.3178, "ARG_OF_PERICENTER": 225.1981, "MEAN_ANOMALY": 133.7063, "EPHEMERIS_TYPE": 0, "CLASSIFICATION_TYPE": "U", "NORAD_CAT_ID": 31172, "ELEMENT_SET_NO": 999, "REV_AT_EPOCH": 97834, "BSTAR": 0.00015300191, "MEAN_MOTION_DOT": 4.13e-06, "MEAN_MOTION_DDOT": 0}, "tle": {"line1": "1 31172U 99025BJA 25361.26876547  .00000413  00000+0  15300-3 0  9990", "line2": "2 31172  98.4252   5.3178 0148362 225.1981 133.7063 14.31526724978341"}}, "geometry": {"type": "Point", "coordinates": [-164.17453037723402, 49.91726972631976]}}, {"type": "Feature", "properties": {"norad_id": 31175, "name": "FENGYUN 1C DEB", "group": "fengyun-1c-debris", "lat": 42.16176158589751, "lon": -170.29561519705425, "alt_km": 637.7007517207876, "timestamp": "2025-12-27T15:27:11.471473+00:00", "meta": {"OBJECT_NAME": "FENGYUN 1C DEB", "OBJECT_ID": "1999-025BJD", "EPOCH": "2025-12-25T05:17:08.329920", "MEAN_MOTION": 14.60514995, "ECCENTRICITY": 0.007447, "INCLINATION": 98.3994, "RA_OF_ASC_NODE": 359.5584, "ARG_OF_PERICENTER": 126.5751, "MEAN_ANOMALY": 234.2332, "EPHEMERIS_TYPE": 0, "CLASSIFICATION_TYPE": "U", "NORAD_CAT_ID": 31175, "ELEMENT_SET_NO": 999, "REV_AT_EPOCH": 65821, "BSTAR": 0.0042719, "MEAN_MOTION_DOT": 0.00021568, "MEAN_MOTION_DDOT": 0}, "tle": {"line1": "1 31175U 99025BJD 25359.22023530  .00021568  00000+0  42719-2 0  9999", "line2": "2 31175  98.3994 359.5584 0074470 126.5751 234.2332 14.60514995658214"}}, "geometry": {"type": "Point", "coordinates": [-170.29561519705425, 42.16176158589751]}}, {"type": "Feature", "properties": {"norad_id": 31177, "name": "FENGYUN 1C DEB", "group": "fengyun-1c-debris", "lat": -80.44677670938705, "lon": -20.059975137815957, "alt_km": 806.1753066651027, "timestamp": "2025-12-27T15:27:11.471484+00:00", "meta": {"OBJECT_NAME": "FENGYUN 1C DEB", "OBJECT_ID": "1999-025BJF", "EPOCH": "2025-12-23T05:09:05.978592", "MEAN_MOTION": 13.62419346, "ECCENTRICITY": 0.03079136, "INCLINATION": 98.7579, "RA_OF_ASC_NODE": 269.6149, "ARG_OF_PERICENTER": 286.8418, "MEAN_ANOMALY": 234.2152, "EPHEMERIS_TYPE": 0, "CLASSIFICATION_TYPE": "U", "NORAD_CAT_ID": 31177, "ELEMENT_SET_NO": 999, "REV_AT_EPOCH": 66354, "BSTAR": 0.0047506015, "MEAN_MOTION_DOT": 5.027e-05, "MEAN_MOTION_DDOT": 0}, "tle": {"line1": "1 31177U 99025BJF 25357.21465253  .00005027  00000+0  47506-2 0  9991", "line2": "2 31177  98.7579 269.6149 0307913 286.8418 234.2152 13.62419346663545"}}, "geometry": {"type": "Point", "coordinates": [-20.059975137815957, -80.44677670938705]}}, {"type": "Feature", "properties": {"norad_id": 31178, "name": "FENGYUN 1C DEB", "group": "fengyun-1c-debris", "lat": -40.28290887540623, "lon": 13.22270939997748, "alt_km": 760.08600174189, "timestamp": "2025-12-27T15:27:11.471494+00:00", "meta": {"OBJECT_NAME": "FENGYUN 1C DEB", "OBJECT_ID": "1999-025BJG", "EPOCH": "2025-12-27T07:12:07.324992", "MEAN_MOTION": 14.22340965, "ECCENTRICITY": 0.01256661, "INCLINATION": 99.514, "RA_OF_ASC_NODE": 4.6805, "ARG_OF_PERICENTER": 274.4546, "MEAN_ANOMALY": 84.2281, "EPHEMERIS_TYPE": 0, "CLASSIFICATION_TYPE": "U", "NORAD_CAT_ID": 31178, "ELEMENT_SET_NO": 999, "REV_AT_EPOCH": 96022, "BSTAR": 0.0021396729, "MEAN_MOTION_DOT": 5.11e-05, "MEAN_MOTION_DDOT": 0}, "tle": {"line1": "1 31178U 99025BJG 25361.30008478  .00005110  00000+0  21397-2 0  9992", "line2": "2 31178  99.5140   4.6805 0125666 274.4546  84.2281 14.22340965960221"}}, "geometry": {"type": "Point", "coordinates": [13.22270939997748, -40.28290887540623]}}, {"type": "Feature", "properties": {"norad_id": 31179, "name": "FENGYUN 1C DEB", "group": "fengyun-1c-debris", "lat": -17.091358184526054, "lon": 23.973019000643546, "alt_km": 781.2715575180619, "timestamp": "2025-12-27T15:27:11.471504+00:00", "meta": {"OBJECT_NAME": "FENGYUN 1C DEB", "OBJECT_ID": "1999-025BJH", "EPOCH": "2025-12-26T18:49:55.636608", "MEAN_MOTION": 13.91966271, "ECCENTRICITY": 0.02150015, "INCLINATION": 99.0193, "RA_OF_ASC_NODE": 20.3375, "ARG_OF_PERICENTER": 322.412, "MEAN_ANOMALY": 36.2174, "EPHEMERIS_TYPE": 0, "CLASSIFICATION_TYPE": "U", "NORAD_CAT_ID": 31179, "ELEMENT_SET_NO": 999, "REV_AT_EPOCH": 62136, "BSTAR": 0.0010318879, "MEAN_MOTION_DOT": 1.546e-05, "MEAN_MOTION_DDOT": 0}, "tle": {"line1": "1 31179U 99025BJH 25360.78467172  .00001546  00000+0  10319-2 0  9995", "line2": "2 31179  99.0193  20.3375 0215001 322.4120  36.2174 13.91966271621363"}}, "geometry": {"type": "Point", "coordinates": [23.973019000643546, -17.091358184526054]}}, {"type": "Feature", "properties": {"norad_id": 31180, "name": "FENGYUN 1C DEB", "group": "fengyun-1c-debris", "lat": 12.629933787669989, "lon": 130.5473012904999, "alt_km": 635.3151369860279, "timestamp": "2025-12-27T15:27:11.471515+00:00", "meta": {"OBJECT_NAME": "FENGYUN 1C DEB", "OBJECT_ID": "1999-025BJJ", "EPOCH": "2025-12-25T02:56:06.052128", "MEAN_MOTION": 13.70352181, "ECCENTRICITY": 0.04978868, "INCLINATION": 99.2183, "RA_OF_ASC_NODE": 130.2046, "ARG_OF_PERICENTER": 27.5852, "MEAN_ANOMALY": 153.0216, "EPHEMERIS_TYPE": 0, "CLASSIFICATION_TYPE": "U", "NORAD_CAT_ID": 31180, "ELEMENT_SET_NO": 999, "REV_AT_EPOCH": 64236, "BSTAR": 0.00018511996, "MEAN_MOTION_DOT": 3.49e-06, "MEAN_MOTION_DDOT": 0}, "tle": {"line1": "1 31180U 99025BJJ 25359.12229227  .00000349  00000+0  18512-3 0  9994", "line2": "2 31180  99.2183 130.2046 0497886  27.5852 153.0216 13.70352181642364"}}, "geometry": {"type": "Point", "coordinates": [130.5473012904999, 12.629933787669989]}}, {"type": "Feature", "properties": {"norad_id": 31181, "name": "FENGYUN 1C DEB", "group": "fengyun-1c-debris", "lat": -31.7668575376011, "lon": 39.36276003878011, "alt_km": 843.8173878753514, "timestamp": "2025-12-27T15:27:11.471525+00:00", "meta": {"OBJECT_NAME": "FENGYUN 1C DEB", "OBJECT_ID": "1999-025BJK", "EPOCH": "2025-12-24T01:00:26.112960", "MEAN_MOTION": 14.11923145, "ECCENTRICITY": 0.00473296, "INCLINATION": 98.7756, "RA_OF_ASC_NODE": 30.3499, "ARG_OF_PERICENTER": 42.4945, "MEAN_ANOMALY": 347.8007, "EPHEMERIS_TYPE": 0, "CLASSIFICATION_TYPE": "U", "NORAD_CAT_ID": 31181, "ELEMENT_SET_NO": 999, "REV_AT_EPOCH": 95927, "BSTAR": 0.00087568947, "MEAN_MOTION_DOT": 1.575e-05, "MEAN_MOTION_DDOT": 0}, "tle": {"line1": "1 31181U 99025BJK 25358.04196890  .00001575  00000+0  87569-3 0  9994", "line2": "2 31181  98.7756  30.3499 0047329  42.4945 347.8007 14.11923145959271"}}, "geometry": {"type": "Point", "coordinates": [39.36276003878011, -31.7668575376011]}}]}